NORAD_CAT_ID,OBJECT_NAME,OBJECT_TYPE,EPOCH,MEAN_MOTION,ECCENTRICITY,INCLINATION,RA_OF_ASC_NODE,ARG_OF_PERICENTER,MEAN_ANOMALY,BSTAR,MEAN_MOTION_DOT,MEAN_MOTION_DDOT,TLE_LINE0,TLE_LINE1,TLE_LINE2,SEMIMAJOR_AXIS,PERIOD,APOGEE,PERIGEE,DECAYED
53937.0,STARLINK-4765,PAYLOAD,2022-10-19 14:00:01,15.73216019,0.0001330999999999,53.2169,131.1218,45.4918,355.6649,0.00014628,0.00019972,0.0,0 STARLINK-4765,1 53937U 22119BD  22292.58334491  .00019972  00000-0  14628-3 0  9998,2 53937  53.2169 131.1218 0001331  45.4918 355.6649 15.73216019  1308,6727.85,91.532,350.61,348.819,0.0
53937.0,STARLINK-4765,PAYLOAD,2022-10-19 22:00:00,15.73277968,0.0001473,53.2171,129.4644,38.1774,91.9243,-0.0010388,-0.00144418,0.0,0 STARLINK-4765,1 53937U 22119BD  22292.91667824 -.00144418  00000-0 -10388-2 0  9998,2 53937  53.2171 129.4644 0001473  38.1774  91.9243 15.73277968  1300,6727.6730000000025,91.529,350.529,348.547,0.0
53937.0,STARLINK-4765,PAYLOAD,2022-10-20 06:00:00,15.73245791,0.0001512,53.2169,127.8234,38.6951,180.3809,-0.00046254,-0.00065162,0.0,0 STARLINK-4765,1 53937U 22119BD  22293.25001157 -.00065162  00000-0 -46254-3 0  9997,2 53937  53.2169 127.8234 0001512  38.6951 180.3809 15.73245791  4415,6727.765,91.531,350.647,348.612,0.0
53937.0,STARLINK-4765,PAYLOAD,2022-10-20 14:00:01,15.73221057,0.0001464,53.2168,126.1735,41.7849,266.2407,-0.00039574,-0.00055843,0.0,0 STARLINK-4765,1 53937U 22119BD  22293.58334491 -.00055843  00000-0 -39574-3 0  9995,2 53937  53.2168 126.1735 0001464  41.7849 266.2407 15.73221057  1301,6727.835,91.532,350.685,348.715,0.0
53937.0,STARLINK-4765,PAYLOAD,2022-10-20 20:00:01,15.73158003,0.0001756,53.2164,124.9378,38.9678,245.7687,0.00027134,0.00037563,0.0,0 STARLINK-4765,1 53937U 22119BD  22293.83334491  .00037563  00000-0  27134-3 0  9999,2 53937  53.2164 124.9378 0001756  38.9678 245.7687 15.73158003  4505,6728.015,91.536,351.061,348.6980000000001,0.0
53937.0,STARLINK-4765,PAYLOAD,2022-10-20 22:00:00,15.73144722,0.0001759,53.2164,124.5228,38.8017,358.1624,0.00061259,0.00086035,0.0,0 STARLINK-4765,1 53937U 22119BD  22293.91667824  .00086035  00000-0  61259-3 0  9991,2 53937  53.2164 124.5228 0001759  38.8017 358.1624 15.73144722  1302,6728.053000000001,91.536,351.101,348.7340000000001,0.0
53937.0,STARLINK-4765,PAYLOAD,2022-10-21 14:00:01,15.73210178,0.0001414,53.2163,121.2224,37.6673,177.1725,0.0003978,0.00055603,0.0,0 STARLINK-4765,1 53937U 22119BD  22294.58334491  .00055603  00000-0  39780-3 0  9997,2 53937  53.2163 121.2224 0001414  37.6673 177.1725 15.73210178  4622,6727.866,91.533,350.682,348.78,0.0
53937.0,STARLINK-4765,PAYLOAD,2022-10-21 20:00:01,15.73239849,0.0001751,53.2161,119.9895,34.1153,157.414,-0.00044888,-0.00063257,0.0,0 STARLINK-4765,1 53937U 22119BD  22294.83334491 -.00063257  00000-0 -44888-3 0  9996,2 53937  53.2161 119.9895 0001751  34.1153 157.4140 15.73239849  4669,6727.781999999997,91.531,350.825,348.469,0.0
53937.0,STARLINK-4765,PAYLOAD,2022-10-21 22:00:00,15.73217339,0.0001811999999999,53.2163,119.5775,34.6024,269.1729,-0.00024473,-0.00034852,0.0,0 STARLINK-4765,1 53937U 22119BD  22294.91667824 -.00034852  00000-0 -24473-3 0  9991,2 53937  53.2163 119.5775 0001812  34.6024 269.1729 15.73217339  1306,6727.846,91.532,350.93,348.492,0.0
53937.0,STARLINK-4765,PAYLOAD,2022-10-22 14:00:01,15.73209576,0.000183,53.216,116.2766,44.2511,77.3607,0.00020386,0.00028098,0.0,0 STARLINK-4765,1 53937U 22119BD  22295.58334491  .00028098  00000-0  20386-3 0  9998,2 53937  53.2160 116.2766 0001830  44.2511  77.3607 15.73209576  4788,6727.868,91.533,350.964,348.50199999999984,0.0
53937.0,STARLINK-4765,PAYLOAD,2022-10-22 22:00:00,15.73210371,0.0001973,53.2156,114.6288,33.1589,177.4273,0.00035416,0.000494,0.0,0 STARLINK-4765,1 53937U 22119BD  22295.91667824  .00049400  00000-0  35416-3 0  9994,2 53937  53.2156 114.6288 0001973  33.1589 177.4273 15.73210371  1305,6727.866,91.533,351.05800000000005,348.403,0.0
53937.0,STARLINK-4765,PAYLOAD,2022-10-23 14:00:01,15.73257963,0.0001636,53.2155,111.3277,30.6087,357.9212,-0.00014282,-0.00020666,0.0,0 STARLINK-4765,1 53937U 22119BD  22296.58334491 -.00020666  00000-0 -14282-3 0  9992,2 53937  53.2155 111.3277 0001636  30.6087 357.9212 15.73257963  4935,6727.73,91.53,350.696,348.494,0.0
53937.0,STARLINK-4765,PAYLOAD,2022-10-23 22:00:00,15.73221328,0.0001892,53.2156,109.6797,26.305,91.2272,-0.00023887,-0.00034042,0.0,0 STARLINK-4765,1 53937U 22119BD  22296.91667824 -.00034042  00000-0 -23887-3 0  9992,2 53937  53.2156 109.6797 0001892  26.3050  91.2272 15.73221328  1307,6727.834,91.532,350.972,348.426,0.0
53937.0,STARLINK-4765,PAYLOAD,2022-10-24 06:00:00,15.73195349,0.0001808,53.2157,108.0281,28.9928,177.4928,-0.00093863,-0.00130314,0.0,0 STARLINK-4765,1 53937U 22119BD  22297.25001157 -.00130314  00000-0 -93863-3 0  9991,2 53937  53.2157 108.0281 0001808  28.9928 177.4928 15.73195349  5041,6727.908,91.533,350.99,348.557,0.0
53937.0,STARLINK-4765,PAYLOAD,2022-10-24 14:00:01,15.73088355,0.0001828,53.2156,106.3789,30.8853,264.4615,0.0001240999999999,0.00016749,0.0,0 STARLINK-4765,1 53937U 22119BD  22297.58334491  .00016749  00000-0  12410-3 0  9999,2 53937  53.2156 106.3789 0001828  30.8853 264.4615 15.73088355  1308,6728.2130000000025,91.54,351.30800000000005,348.849,0.0
53937.0,STARLINK-4765,PAYLOAD,2022-10-24 22:00:00,15.73086027,0.0002034,53.215,104.7312,23.0696,1.0731,0.0012872,0.0018313,0.0,0 STARLINK-4765,1 53937U 22119BD  22297.91667824  .00183130  00000-0  12872-2 0  9995,2 53937  53.2150 104.7312 0002034  23.0696   1.0731 15.73086027  1303,6728.22,91.54,351.454,348.717,0.0
53937.0,STARLINK-4765,PAYLOAD,2022-10-25 06:00:00,15.73209915,0.0001803,53.215,103.0798,23.4141,89.6006,-0.00021671,-0.00030937,0.0,0 STARLINK-4765,1 53937U 22119BD  22298.25001157 -.00030937  00000-0 -21671-3 0  9990,2 53937  53.2150 103.0798 0001803  23.4141  89.6006 15.73209915  5208,6727.8669999999975,91.533,350.945,348.519,0.0
53937.0,STARLINK-4765,PAYLOAD,2022-10-25 14:00:01,15.73187353,0.0001932,53.2154,101.4307,29.1896,172.7426,0.00023813,0.00032914,0.0,0 STARLINK-4765,1 53937U 22119BD  22298.58334491  .00032914  00000-0  23813-3 0  9991,2 53937  53.2154 101.4307 0001932  29.1896 172.7426 15.73187353  1301,6727.931,91.534,351.096,348.496,0.0
53937.0,STARLINK-4765,PAYLOAD,2022-10-25 20:00:01,15.73187979,0.0002189,53.2156,100.1949,26.5462,152.0807,0.00057075,0.00080212,0.0,0 STARLINK-4765,1 53937U 22119BD  22298.83334491  .00080212  00000-0  57075-3 0  9990,2 53937  53.2156 100.1949 0002189  26.5462 152.0807 15.73187979  5296,6727.929,91.534,351.267,348.32199999999995,0.0
53937.0,STARLINK-4765,PAYLOAD,2022-10-25 22:00:01,15.7320489,0.0002215999999999,53.2155,99.7826,24.7985,266.1252,0.00046538,0.00065219,0.0,0 STARLINK-4765,1 53937U 22119BD  22298.91668981  .00065219  00000-0  46538-3 0  9995,2 53937  53.2155  99.7826 0002216  24.7985 266.1252 15.73204890  1304,6727.880999999999,91.533,351.237,348.255,0.0
53937.0,STARLINK-4765,PAYLOAD,2022-10-26 06:00:00,15.73210254,0.0002079,53.2158,98.131,29.7743,350.0608,0.00018422,0.00025324,0.0,0 STARLINK-4765,1 53937U 22119BD  22299.25001157  .00025324  00000-0  18422-3 0  9993,2 53937  53.2158  98.1310 0002079  29.7743 350.0608 15.73210254  5350,6727.866,91.533,351.13,348.332,0.0
53937.0,STARLINK-4765,PAYLOAD,2022-10-26 14:00:01,15.73216588,0.000218,53.2158,96.482,28.0507,80.729,-0.00011791,-0.00017149,0.0,0 STARLINK-4765,1 53937U 22119BD  22299.58334491 -.00017149  00000-0 -11791-3 0  9999,2 53937  53.2158  96.4820 0002180  28.0507  80.7290 15.73216588  1301,6727.848000000001,91.532,351.18,348.246,0.0
53937.0,STARLINK-4765,PAYLOAD,2022-10-26 22:00:00,15.73200979,0.000233,53.2153,94.8339,22.7286,174.9915,0.00053975,0.00075825,0.0,0 STARLINK-4765,1 53937U 22119BD  22299.91667824  .00075825  00000-0  53975-3 0  9998,2 53937  53.2153  94.8339 0002330  22.7286 174.9915 15.73200979  1302,6727.892,91.533,351.325,348.19,0.0
53937.0,STARLINK-4765,PAYLOAD,2022-10-27 14:00:01,15.73281364,0.0002228,53.2159,91.5334,21.9231,353.842,-0.00061896,-0.00086909,0.0,0 STARLINK-4765,1 53937U 22119BD  22300.58335648 -.00086909  00000-0 -61896-3 0  9998,2 53937  53.2159  91.5334 0002228  21.9231 353.8420 15.73281364  5562,6727.663000000001,91.528,351.027,348.029,0.0
53937.0,STARLINK-4765,PAYLOAD,2022-10-27 22:00:00,15.73212456,0.0002477,53.216,89.885,19.5991,85.0964,0.00018565,0.00025529,0.0,0 STARLINK-4765,1 53937U 22119BD  22300.91667824  .00025529  00000-0  18565-3 0  9993,2 53937  53.2160  89.8850 0002477  19.5991  85.0964 15.73212456  1300,6727.86,91.532,351.391,348.05800000000005,0.0
53937.0,STARLINK-4765,PAYLOAD,2022-10-28 06:00:00,15.73222534,0.0002325,53.2163,88.2335,20.3009,173.3535,-0.0002082,-0.0002976999999999,0.0,0 STARLINK-4765,1 53937U 22119BD  22301.25001157 -.00029770  00000-0 -20820-3 0  9993,2 53937  53.2163  88.2335 0002325  20.3009 173.3535 15.73222534  5673,6727.831,91.532,351.26,348.13199999999995,0.0
53937.0,STARLINK-4765,PAYLOAD,2022-10-28 14:00:01,15.73179946,0.0002494,53.2164,86.585,20.7068,261.9548,0.00011212,0.0001513,0.0,0 STARLINK-4765,1 53937U 22119BD  22301.58335648  .00015130  00000-0  11212-3 0  9992,2 53937  53.2164  86.5850 0002494  20.7068 261.9548 15.73179946  1305,6727.9519999999975,91.534,351.495,348.139,0.0
53937.0,STARLINK-4765,PAYLOAD,2022-10-28 22:00:01,15.73223936,0.000269,53.2158,84.9366,15.4942,356.0677,-0.00012559,-0.00018231,0.0,0 STARLINK-4765,1 53937U 22119BD  22301.91668981 -.00018231  00000-0 -12559-3 0  9990,2 53937  53.2158  84.9366 0002690  15.4942 356.0677 15.73223936  1300,6727.8269999999975,91.532,351.50199999999984,347.88199999999995,0.0
53937.0,STARLINK-4765,PAYLOAD,2022-10-29 04:00:00,15.73216864,0.0002447,53.2161,83.6979,17.2109,331.0128,-0.0004502,-0.00063386,0.0,0 STARLINK-4765,1 53937U 22119BD  22302.16667824 -.00063386  00000-0 -45020-3 0  9993,2 53937  53.2161  83.6979 0002447  17.2109 331.0128 15.73216864  5811,6727.847,91.532,351.358,348.066,0.0
